{"spkid": "50067851", "covariance": {"epoch": "2456141.5", "data": [["1.162840504175681E-16", "-1.516769827867531E-16", "1.04395891654025E-13", "2.8112679055186E-12", "-2.69399220215442E-12", "-6.89080351721406E-15"], ["-1.516769827867531E-16", "1.978941362060272E-16", "-1.366343613880414E-13", "-3.6398846405758E-12", "3.486434166602193E-12", "9.087926816562996E-15"], ["1.04395891654025E-13", "-1.366343613880414E-13", "1.248729755044668E-10", "1.176260973198294E-9", "-1.036199931869497E-9", "-5.520145174952393E-12"], ["2.8112679055186E-12", "-3.6398846405758E-12", "1.176260973198294E-9", "1.543543344734284E-7", "-1.530167777970262E-7", "2.000422127382549E-11"], ["-2.69399220215442E-12", "3.486434166602193E-12", "-1.036199931869497E-9", "-1.530167777970262E-7", "1.518363574379111E-7", "-2.615595889816404E-11"], ["-6.89080351721406E-15", "9.087926816562996E-15", "-5.520145174952393E-12", "2.000422127382549E-11", "-2.615595889816404E-11", "2.549203228880188E-12"]], "elements": [{"value": ".2380892094937665", "title": "eccentricity", "units": null, "sigma": 1.07835082611165e-08, "name": "e", "label": "e"}, {"sigma": 1.40674850704036e-08, "name": "q", "units": "au", "value": ".9730018302446221", "title": "perihelion distance", "label": "q"}, {"label": "tp", "name": "tp", "sigma": 1.11746577354506e-05, "value": "2456103.598287808886", "title": "time of perihelion passage", "units": "TDB"}, {"label": "node", "units": "deg", "title": "longitude of the ascending node", "value": "31.58816972336905", "sigma": 0.00039287954193802, "name": "om"}, {"label": "peri", "title": "argument of perihelion", "value": "42.1811190059936", "units": "deg", "sigma": 0.000389661850118678, "name": "w"}, {"label": "i", "units": "deg", "title": "inclination", "value": ".2773351103931083", "name": "i", "sigma": 1.59662244406127e-06}], "labels": ["e", "q", "tp", "node", "peri", "i"]}, "elements": [{"label": "e", "units": null, "title": "eccentricity", "value": ".2408123404731776", "name": "e", "sigma": "1.5617E-8"}, {"value": "1.28366509213975", "title": "semi-major axis", "units": "au", "name": "a", "sigma": "1.1528E-8", "label": "a"}, {"label": "q", "title": "perihelion distance", "value": ".9745426969178599", "units": "au", "name": "q", "sigma": "1.1703E-8"}, {"label": "i", "sigma": "1.3679E-6", "name": "i", "units": "deg", "value": ".200710924276924", "title": "inclination; angle with respect to x-y ecliptic plane"}, {"label": "node", "units": "deg", "title": "longitude of the ascending node", "value": "20.52952556634229", "name": "om", "sigma": ".00073616"}, {"label": "peri", "name": "w", "sigma": ".00073504", "value": "51.28013995126974", "title": "argument of perihelion", "units": "deg"}, {"label": "M", "units": "deg", "title": "mean anomaly", "value": "218.1211839500211", "sigma": "4.7155E-5", "name": "ma"}, {"title": "time of perihelion passage", "value": "2461409.858731676090", "units": "TDB", "name": "tp", "sigma": "7.2386E-5", "label": "tp"}, {"label": "period", "units": "d", "value": "531.2219646437045", "title": "sidereal orbital period", "name": "per", "sigma": "7.1562E-6"}, {"label": "n", "units": "deg/d", "title": "mean motion", "value": ".6776828217964507", "sigma": "9.1292E-9", "name": "n"}, {"name": "ad", "sigma": "1.4305E-8", "units": "au", "value": "1.592787487361641", "title": "aphelion distance", "label": "Q"}], "epoch": "2461200.5"}